[Satellite]
VERSION=1.1
NAME=SL-8 R/B
NICKNAME=SL-8 R/B
TLE1=1 02802U 67045B   18020.80645047  .00000051  00000-0  22557-4 0  9990
TLE2=2 02802  74.0123 121.5689 0065472 124.2740 236.4641 14.43680734660386
